{
  "40258": [
    {
      "epoch": "2026-02-02T03:01:09.057800+00:00",
      "mean_motion": 0.99113558,
      "eccentricity": 0.0003786,
      "inclination": 1.5425,
      "raan": 84.5019,
      "arg_perigee": 195.2137,
      "mean_anomaly": 223.8861,
      "bstar": 0.0,
      "tle_line1": "1 40258U 14058A   26033.12579928 -.00000253  00000-0  00000+0 0  9994",
      "tle_line2": "2 40258   1.5425  84.5019 0003786 195.2137 223.8861  0.99113558 39639",
      "norad_id": 40258,
      "object_name": "LUCH (OLYMP)"
    },
    {
      "epoch": "2026-02-02T06:26:19.399750+00:00",
      "mean_motion": 0.99112121,
      "eccentricity": 0.0003696,
      "inclination": 1.5429,
      "raan": 84.504,
      "arg_perigee": 194.642,
      "mean_anomaly": 275.2944,
      "bstar": 0.0,
      "tle_line1": "1 40258U 14058A   26033.26828009 -.00000253  00000-0  00000+0 0  9996",
      "tle_line2": "2 40258   1.5429  84.5040 0003696 194.6420 275.2944  0.99112121 39633",
      "norad_id": 40258,
      "object_name": "LUCH (OLYMP)"
    },
    {
      "epoch": "2026-02-02T09:51:38.649628+00:00",
      "mean_motion": 0.9911472699999999,
      "eccentricity": 0.0003834,
      "inclination": 1.5432,
      "raan": 84.5,
      "arg_perigee": 196.1831,
      "mean_anomaly": 324.6358,
      "bstar": 0.0,
      "tle_line1": "1 40258U 14058A   26033.41086400 -.00000253  00000-0  00000+0 0  9994",
      "tle_line2": "2 40258   1.5432  84.5000 0003834 196.1831 324.6358  0.99114727 39632",
      "norad_id": 40258,
      "object_name": "LUCH (OLYMP)"
    },
    {
      "epoch": "2026-02-05T11:24:17.659302+00:00",
      "mean_motion": 0.9911410500000001,
      "eccentricity": 0.0003598,
      "inclination": 1.5515,
      "raan": 84.4676,
      "arg_perigee": 198.756,
      "mean_anomaly": 335.5109,
      "bstar": 0.0,
      "tle_line1": "1 40258U 14058A   26036.47520439 -.00000222  00000-0  00000+0 0  9994",
      "tle_line2": "2 40258   1.5515  84.4676 0003598 198.7560 335.5109  0.99114105 39664",
      "norad_id": 40258,
      "object_name": "LUCH (OLYMP)"
    },
    {
      "epoch": "2026-02-09T19:43:44.404633+00:00",
      "mean_motion": 0.9911280499999999,
      "eccentricity": 0.0003286,
      "inclination": 1.5619,
      "raan": 84.4085,
      "arg_perigee": 202.0189,
      "mean_anomaly": 83.3256,
      "bstar": 0.0,
      "tle_line1": "1 40258U 14058A   26040.82204172 -.00000143  00000-0  00000+0 0  9993",
      "tle_line2": "2 40258   1.5619  84.4085 0003286 202.0189  83.3256  0.99112805 39704",
      "norad_id": 40258,
      "object_name": "LUCH (OLYMP)"
    },
    {
      "epoch": "2026-02-10T02:34:05.078186+00:00",
      "mean_motion": 0.99112703,
      "eccentricity": 0.0003266,
      "inclination": 1.5626,
      "raan": 84.4037,
      "arg_perigee": 202.0785,
      "mean_anomaly": 184.9487,
      "bstar": 0.0,
      "tle_line1": "1 40258U 14058A   26041.10700322 -.00000137  00000-0  00000+0 0  9996",
      "tle_line2": "2 40258   1.5626  84.4037 0003266 202.0785 184.9487  0.99112703 39711",
      "norad_id": 40258,
      "object_name": "LUCH (OLYMP)"
    },
    {
      "epoch": "2026-02-10T11:07:08.412384+00:00",
      "mean_motion": 0.99112583,
      "eccentricity": 0.0003254,
      "inclination": 1.5634,
      "raan": 84.3986,
      "arg_perigee": 202.2215,
      "mean_anomaly": 311.9391,
      "bstar": 0.0,
      "tle_line1": "1 40258U 14058A   26041.46329181 -.00000130  00000-0  00000+0 0  9998",
      "tle_line2": "2 40258   1.5634  84.3986 0003254 202.2215 311.9391  0.99112583 39711",
      "norad_id": 40258,
      "object_name": "LUCH (OLYMP)"
    },
    {
      "epoch": "2026-02-12T02:27:12.194214+00:00",
      "mean_motion": 0.9911201400000001,
      "eccentricity": 0.000319,
      "inclination": 1.5673,
      "raan": 84.3767,
      "arg_perigee": 202.9631,
      "mean_anomaly": 176.0089,
      "bstar": 0.0,
      "tle_line1": "1 40258U 14058A   26043.10222447 -.00000096  00000-0  00000+0 0  9999",
      "tle_line2": "2 40258   1.5673  84.3767 0003190 202.9631 176.0089  0.99112014 39734",
      "norad_id": 40258,
      "object_name": "LUCH (OLYMP)"
    },
    {
      "epoch": "2026-02-12T05:52:30.015839+00:00",
      "mean_motion": 0.9911195799999999,
      "eccentricity": 0.0003184,
      "inclination": 1.5676,
      "raan": 84.3756,
      "arg_perigee": 202.9821,
      "mean_anomaly": 226.8606,
      "bstar": 0.0,
      "tle_line1": "1 40258U 14058A   26043.24479185 -.00000093  00000-0  00000+0 0  9994",
      "tle_line2": "2 40258   1.5676  84.3756 0003184 202.9821 226.8606  0.99111958 39734",
      "norad_id": 40258,
      "object_name": "LUCH (OLYMP)"
    },
    {
      "epoch": "2026-02-13T04:13:01.077026+00:00",
      "mean_motion": 0.99111642,
      "eccentricity": 0.0003168,
      "inclination": 1.5699,
      "raan": 84.3633,
      "arg_perigee": 203.1786,
      "mean_anomaly": 198.83570000000003,
      "bstar": 0.0,
      "tle_line1": "1 40258U 14058A   26044.17570691 -.00000074  00000-0  00000+0 0  9990",
      "tle_line2": "2 40258   1.5699  84.3633 0003168 203.1786 198.8357  0.99111642 39740",
      "norad_id": 40258,
      "object_name": "LUCH (OLYMP)"
    },
    {
      "epoch": "2026-02-13T10:56:53.412842+00:00",
      "mean_motion": 0.99111543,
      "eccentricity": 0.0003164,
      "inclination": 1.5705,
      "raan": 84.3595,
      "arg_perigee": 203.1249,
      "mean_anomaly": 298.9663,
      "bstar": 0.0,
      "tle_line1": "1 40258U 14058A   26044.45617376 -.00000068  00000-0  00000+0 0  9996",
      "tle_line2": "2 40258   1.5705  84.3595 0003164 203.1249 298.9663  0.99111543 39747",
      "norad_id": 40258,
      "object_name": "LUCH (OLYMP)"
    },
    {
      "epoch": "2026-02-14T10:53:24.789673+00:00",
      "mean_motion": 0.9911121199999999,
      "eccentricity": 0.0003161,
      "inclination": 1.5729,
      "raan": 84.3465,
      "arg_perigee": 203.1717,
      "mean_anomaly": 294.879,
      "bstar": 0.0,
      "tle_line1": "1 40258U 14058A   26045.45375914 -.00000048  00000-0  00000+0 0  9994",
      "tle_line2": "2 40258   1.5729  84.3465 0003161 203.1717 294.8790  0.99111212 39756",
      "norad_id": 40258,
      "object_name": "LUCH (OLYMP)"
    },
    {
      "epoch": "2026-02-14T14:18:42.612183+00:00",
      "mean_motion": 0.99111171,
      "eccentricity": 0.0003161,
      "inclination": 1.5733,
      "raan": 84.3445,
      "arg_perigee": 203.213,
      "mean_anomaly": 345.7087,
      "bstar": 0.0,
      "tle_line1": "1 40258U 14058A   26045.59632653 -.00000045  00000-0  00000+0 0  9992",
      "tle_line2": "2 40258   1.5733  84.3445 0003161 203.2130 345.7087  0.99111171 39758",
      "norad_id": 40258,
      "object_name": "LUCH (OLYMP)"
    },
    {
      "epoch": "2026-02-15T02:16:58.915802+00:00",
      "mean_motion": 0.99111019,
      "eccentricity": 0.0003161,
      "inclination": 1.5745,
      "raan": 84.3378,
      "arg_perigee": 203.4426,
      "mean_anomaly": 163.4611,
      "bstar": 0.0,
      "tle_line1": "1 40258U 14058A   26046.09512634 -.00000035  00000-0  00000+0 0  9993",
      "tle_line2": "2 40258   1.5745  84.3378 0003161 203.4426 163.4611  0.99111019 39766",
      "norad_id": 40258,
      "object_name": "LUCH (OLYMP)"
    },
    {
      "epoch": "2026-02-15T05:42:12.877930+00:00",
      "mean_motion": 0.9911096399999999,
      "eccentricity": 0.0003165,
      "inclination": 1.5748,
      "raan": 84.33600000000001,
      "arg_perigee": 203.3275,
      "mean_anomaly": 214.4309,
      "bstar": 0.0,
      "tle_line1": "1 40258U 14058A   26046.23764905 -.00000032  00000-0  00000+0 0  9996",
      "tle_line2": "2 40258   1.5748  84.3360 0003165 203.3275 214.4309  0.99110964 39764",
      "norad_id": 40258,
      "object_name": "LUCH (OLYMP)"
    },
    {
      "epoch": "2026-02-15T12:32:33.544617+00:00",
      "mean_motion": 0.9911085900000001,
      "eccentricity": 0.0003166,
      "inclination": 1.5755,
      "raan": 84.3319,
      "arg_perigee": 203.3019,
      "mean_anomaly": 316.1365,
      "bstar": 0.0,
      "tle_line1": "1 40258U 14058A   26046.52261047 -.00000026  00000-0  00000+0 0  9990",
      "tle_line2": "2 40258   1.5755  84.3319 0003166 203.3019 316.1365  0.99110859 39768",
      "norad_id": 40258,
      "object_name": "LUCH (OLYMP)"
    },
    {
      "epoch": "2026-02-16T14:11:47.429077+00:00",
      "mean_motion": 0.99110557,
      "eccentricity": 0.0003178,
      "inclination": 1.5781000000000003,
      "raan": 84.3162,
      "arg_perigee": 203.1778,
      "mean_anomaly": 337.6698,
      "bstar": 0.0,
      "tle_line1": "1 40258U 14058A   26047.59152117 -.00000004  00000-0  00000+0 0  9991",
      "tle_line2": "2 40258   1.5781  84.3162 0003178 203.1778 337.6698  0.99110557 39779",
      "norad_id": 40258,
      "object_name": "LUCH (OLYMP)"
    },
    {
      "epoch": "2026-02-17T02:10:04.469666+00:00",
      "mean_motion": 0.99110437,
      "eccentricity": 0.0003185,
      "inclination": 1.5794,
      "raan": 84.3086,
      "arg_perigee": 203.4035,
      "mean_anomaly": 155.4289,
      "bstar": 0.0,
      "tle_line1": "1 40258U 14058A   26048.09032951  .00000005  00000-0  00000+0 0  9990",
      "tle_line2": "2 40258   1.5794  84.3086 0003185 203.4035 155.4289  0.99110437 39774",
      "norad_id": 40258,
      "object_name": "LUCH (OLYMP)"
    },
    {
      "epoch": "2026-02-17T12:17:35.021759+00:00",
      "mean_motion": 0.9911033399999999,
      "eccentricity": 0.0003201,
      "inclination": 1.5806,
      "raan": 84.3032,
      "arg_perigee": 203.2059,
      "mean_anomaly": 306.1612,
      "bstar": 0.0,
      "tle_line1": "1 40258U 14058A   26048.51221090  .00000013  00000-0  00000+0 0  9990",
      "tle_line2": "2 40258   1.5806  84.3032 0003201 203.2059 306.1612  0.99110334 39784",
      "norad_id": 40258,
      "object_name": "LUCH (OLYMP)"
    }
  ],
  "44878": []
}